{
    "links": {
        "self": "http://www.neowsapp.com/rest/v1/neo/3795051?api_key=iIulBulltgU6a56xZRHN4H3l9WmuAYTsLGpBGhQ2"
    },
    "id": "3795051",
    "neo_reference_id": "3795051",
    "name": "(2017 YT4)",
    "designation": "2017 YT4",
    "nasa_jpl_url": "http://ssd.jpl.nasa.gov/sbdb.cgi?sstr=3795051",
    "absolute_magnitude_h": 23.6,
    "estimated_diameter": {
        "kilometers": {
            "estimated_diameter_min": 0.0506471459,
            "estimated_diameter_max": 0.1132504611
        },
        "meters": {
            "estimated_diameter_min": 50.6471458835,
            "estimated_diameter_max": 113.2504610618
        },
        "miles": {
            "estimated_diameter_min": 0.0314706677,
            "estimated_diameter_max": 0.0703705522
        },
        "feet": {
            "estimated_diameter_min": 166.1651821003,
            "estimated_diameter_max": 371.5566426699
        }
    },
    "is_potentially_hazardous_asteroid": false,
    "close_approach_data": [
        {
            "close_approach_date": "2017-11-14",
            "close_approach_date_full": "2017-Nov-14 08:32",
            "epoch_date_close_approach": 1510648320000,
            "relative_velocity": {
                "kilometers_per_second": "6.0134530344",
                "kilometers_per_hour": "21648.4309237501",
                "miles_per_hour": "13451.4930925935"
            },
            "miss_distance": {
                "astronomical": "0.1636167643",
                "lunar": "63.6469213127",
                "kilometers": "24476719.435572041",
                "miles": "15209128.2006185258"
            },
            "orbiting_body": "Earth"
        }
    ],
    "orbital_data": {
        "orbit_id": "2",
        "orbit_determination_date": "2018-03-06 06:21:22",
        "first_observation_date": "2017-12-24",
        "last_observation_date": "2018-01-20",
        "data_arc_in_days": 27,
        "observations_used": 14,
        "orbit_uncertainty": "7",
        "minimum_orbit_intersection": ".138484",
        "jupiter_tisserand_invariant": "4.132",
        "epoch_osculation": "2459000.5",
        "eccentricity": ".3868707961104077",
        "semi_major_axis": "1.681018388178572",
        "inclination": "8.586330864804266",
        "ascending_node_longitude": "131.0924743880902",
        "orbital_period": "796.0807511284727",
        "perihelion_distance": "1.030681466067694",
        "perihelion_argument": "261.0973149573697",
        "aphelion_distance": "2.33135531028945",
        "perihelion_time": "2458852.048528161723",
        "mean_anomaly": "67.13204632321931",
        "mean_motion": ".452215431022151",
        "equinox": "J2000",
        "orbit_class": {
            "orbit_class_type": "AMO",
            "orbit_class_description": "Near-Earth asteroid orbits similar to that of 1221 Amor",
            "orbit_class_range": "1.017 AU < q (perihelion) < 1.3 AU"
        }
    },
    "is_sentry_object": false
}